0 SL-14 DEB
1 26008U 91068T   13287.14581628  .00000006  00000-0 -26294-4 0  1004
2 26008 082.6258 087.5509 0092471 154.1392 250.8800 12.63040102645851
0 SL-14 DEB
1 26008U 91068T   13289.43946561  .00000001  00000-0 -54556-4 0  1017
2 26008 082.6265 086.0945 0092525 148.9871 239.9166 12.63040088646149
0 SL-14 DEB
1 26008U 91068T   13291.50623442  .00000009  00000-0 -14879-4 0  1021
2 26008 082.6269 084.7823 0092591 144.3273 277.3633 12.63039853646404
0 SL-14 DEB
1 26008U 91068T   13293.81553720  .00000031  00000-0  10463-3 0  1037
2 26008 082.6272 083.3162 0092619 139.1412 337.5729 12.63039666646695
0 SL-14 DEB
1 26008U 91068T   13295.88337160  .00000038  00000-0  14756-3 0  1041
2 26008 082.6272 082.0033 0092664 134.4856 019.8560 12.63039841646955
